OBJECT_NAME,OBJECT_ID,EPOCH,MEAN_MOTION,ECCENTRICITY,INCLINATION,RA_OF_ASC_NODE,ARG_OF_PERICENTER,MEAN_ANOMALY,EPHEMERIS_TYPE,CLASSIFICATION_TYPE,NORAD_CAT_ID,ELEMENT_SET_NO,REV_AT_EPOCH,BSTAR,MEAN_MOTION_DOT,MEAN_MOTION_DDOT
STARLINK-33820,2025-076R,2026-06-15T04:02:22.543008,15.27590956,.0002205,43.0036,130.7371,267.7003,92.3596,0,U,63584,999,6674,.77077E-3,.21016E-3,0
STARLINK-33813,2025-076S,2026-06-14T04:31:54.698592,15.27593675,.00013528,43.0044,136.2862,263.5637,96.5060,0,U,63585,999,6659,.6820729E-3,.18562E-3,0
STARLINK-33834,2025-076T,2026-06-15T04:54:11.273760,15.27592207,.000263,43.0007,131.0091,285.1317,74.9243,0,U,63586,999,6674,.58106E-3,.15768E-3,0
STARLINK-33830,2025-076U,2026-06-15T04:50:30.044832,15.27579054,.0000808,43.0013,130.9898,269.0214,91.0545,0,U,63587,999,6674,.54035E-3,.14636E-3,0
STARLINK-33651,2025-076V,2026-06-15T04:52:20.224704,15.27586260,.0000738,43.0002,131.0007,274.0921,85.9847,0,U,63588,999,6674,.4234E-3,.11409E-3,0
STARLINK-33788,2025-076W,2026-06-14T15:08:58.833600,15.27590270,.00017871,42.9934,134.4568,266.4160,93.6487,0,U,63589,999,6665,.74483799E-3,.20297E-3,0
STARLINK-33805,2025-076X,2026-06-14T15:23:47.098176,15.27591676,.00012221,42.9984,134.5199,273.1053,86.9659,0,U,63590,999,6665,.92102182E-3,.25178E-3,0
STARLINK-33702,2025-076Y,2026-06-15T04:24:34.873344,15.27608081,.000066,43.0013,130.8515,132.7819,227.3088,0,U,63591,999,6674,.6191E-3,.16828E-3,0
STARLINK-33666,2025-076Z,2026-06-14T15:01:34.047264,15.27603364,.0003445,43.0059,134.4126,266.6051,93.4406,0,U,63592,999,6665,.52251E-3,.14155E-3,0
STARLINK-33723,2025-076AA,2026-06-15T04:33:50.140224,15.27582509,.0000728,43.0037,130.9006,250.3835,109.6938,0,U,63593,999,6674,.46802E-3,.1264E-3,0
STARLINK-33791,2025-076AB,2026-06-14T15:05:18.042720,15.27564440,.00023984,43.0033,134.4312,270.8010,89.2567,0,U,63594,999,6665,.75792399E-3,.20643E-3,0
STARLINK-33831,2025-076AC,2026-06-15T04:39:22.261824,15.27584522,.0000989,43.0020,130.8695,268.6116,91.4622,0,U,63595,999,6674,.4576E-3,.12353E-3,0
SHIYAN-27 OBJECT A,2025-078A,2026-06-15T04:21:38.651040,13.57250232,.0001153,99.6904,173.4402,82.7250,277.4019,0,U,63599,999,5726,.67991E-4,.4E-7,0
SHIYAN-27 OBJECT B,2025-078B,2026-06-15T03:28:46.714368,13.57246821,.000097,99.6917,173.3782,79.7911,280.3337,0,U,63600,999,5725,.89375E-4,.2E-6,0
SHIYAN-27 OBJECT C,2025-078C,2026-06-15T04:04:05.385792,13.57246020,.0001177,99.6911,173.4941,90.9255,269.2018,0,U,63601,999,5726,.61541E-4,0,0
SHIYAN-27 OBJECT D,2025-078D,2026-06-15T03:46:29.836992,13.57248992,.0001142,99.6933,173.4290,84.6001,275.5267,0,U,63602,999,5725,.6343E-4,.1E-7,0
SHIYAN-27 OBJECT E,2025-078E,2026-06-15T03:10:56.392032,13.57241603,.0001127,99.6889,173.3142,83.3951,276.7316,0,U,63603,999,5725,.79489E-4,.13E-6,0
SHIYAN-27 OBJECT F,2025-078F,2026-06-15T04:39:29.157408,13.57241497,.0001223,99.6907,173.4379,86.2252,273.9026,0,U,63604,999,5726,.68315E-4,.5E-7,0
KORSAT-3,2025-081A,2026-06-15T00:10:24.849120,14.98788155,.0007497,45.4123,347.1896,204.4625,155.5898,0,U,63630,999,6285,.27332E-3,.3116E-4,0
TOMORROW-S7,2025-081B,2026-06-15T04:30:54.048384,14.99609955,.000277,45.3946,346.2162,256.3860,103.6710,0,U,63631,999,6287,.12677E-3,.1354E-4,0
STARLINK-33879,2025-083A,2026-06-14T17:28:50.624544,15.27585774,.00016719,42.9928,177.5321,276.5065,83.5596,0,U,63634,999,6490,.80937449E-3,.22081E-3,0
STARLINK-33854,2025-083B,2026-06-14T18:01:56.038656,15.27584833,.00022883,43.0017,176.8538,276.7626,83.2965,0,U,63635,999,6491,.59783052E-3,.16228E-3,0
STARLINK-33864,2025-083C,2026-06-14T08:09:26.798400,15.27602353,.00005414,43.0015,179.7738,294.7445,65.3350,0,U,63636,999,6487,.42585478E-3,.11483E-3,0
STARLINK-33832,2025-083D,2026-06-14T17:50:49.139520,15.27590848,.00041276,43.0054,176.7930,264.7037,95.3343,0,U,63637,999,6491,.84323528E-3,.23026E-3,0
STARLINK-33856,2025-083E,2026-06-14T18:05:37.549248,15.27588232,.0003352,43.0034,176.8641,265.6860,94.3609,0,U,63638,999,6491,.72137974E-3,.19648E-3,0
STARLINK-33876,2025-083F,2026-06-13T07:56:23.640288,15.27595016,.00039695,42.9986,185.0966,278.8312,81.2090,0,U,63639,999,6469,.53091974E-3,.14385E-3,0
STARLINK-33859,2025-083G,2026-06-14T17:32:32.415072,15.27587817,.0002183,42.9926,177.5567,269.6335,90.4266,0,U,63640,999,6490,.77688373E-3,.21183E-3,0
STARLINK-33826,2025-083H,2026-06-14T18:09:20.102688,15.27589296,.00022709,43.0007,176.8897,268.3033,91.7559,0,U,63641,999,6491,.80563942E-3,.2198E-3,0
STARLINK-33836,2025-083J,2026-06-14T17:19:34.953312,15.27600862,.00027312,42.9929,177.4830,275.6954,84.3586,0,U,63642,999,6490,.69798179E-3,.19008E-3,0
STARLINK-33558,2025-083K,2026-06-14T17:56:22.616736,15.27585048,.00026079,43.0089,176.8139,261.9469,98.1087,0,U,63643,999,6491,.40596453E-3,.10927E-3,0
