STARLINK-33820          
1 63584U 25076R   26166.16831647  .00021016  00000+0  77077-3 0  9993
2 63584  43.0036 130.7371 0002205 267.7003  92.3596 15.27590956 66746
STARLINK-33813          
1 63585U 25076S   26165.18882753  .00018562  00000+0  68207-3 0  9996
2 63585  43.0044 136.2862 0001352 263.5637  96.5060 15.27593675 66597
STARLINK-33834          
1 63586U 25076T   26166.20429715  .00015768  00000+0  58106-3 0  9998
2 63586  43.0007 131.0091 0002630 285.1317  74.9243 15.27592207 66749
STARLINK-33830          
1 63587U 25076U   26166.20173663  .00014636  00000+0  54035-3 0  9997
2 63587  43.0013 130.9898 0000808 269.0214  91.0545 15.27579054 66742
STARLINK-33651          
1 63588U 25076V   26166.20301186  .00011409  00000+0  42340-3 0  9992
2 63588  43.0002 131.0007 0000738 274.0921  85.9847 15.27586260 66742
STARLINK-33788          
1 63589U 25076W   26165.63123650  .00020297  00000+0  74484-3 0  9996
2 63589  42.9934 134.4568 0001787 266.4160  93.6487 15.27590270 66651
STARLINK-33805          
1 63590U 25076X   26165.64151734  .00025178  00000+0  92102-3 0  9993
2 63590  42.9984 134.5199 0001222 273.1053  86.9659 15.27591676 66656
STARLINK-33702          
1 63591U 25076Y   26166.18373696  .00016828  00000+0  61910-3 0  9992
2 63591  43.0013 130.8515 0000660 132.7819 227.3088 15.27608081 66744
STARLINK-33666          
1 63592U 25076Z   26165.62608851  .00014155  00000+0  52251-3 0  9994
2 63592  43.0059 134.4126 0003445 266.6051  93.4406 15.27603364 66657
STARLINK-33723          
1 63593U 25076AA  26166.19016366  .00012640  00000+0  46802-3 0  9994
2 63593  43.0037 130.9006 0000728 250.3835 109.6938 15.27582509 66740
STARLINK-33791          
1 63594U 25076AB  26165.62868105  .00020643  00000+0  75792-3 0  9990
2 63594  43.0033 134.4312 0002398 270.8010  89.2567 15.27564440 66658
STARLINK-33831          
1 63595U 25076AC  26166.19400766  .00012353  00000+0  45760-3 0  9990
2 63595  43.0020 130.8695 0000989 268.6116  91.4622 15.27584522 66745
SHIYAN-27 OBJECT A      
1 63599U 25078A   26166.18169735  .00000004  00000+0  67991-4 0  9994
2 63599  99.6904 173.4402 0001153  82.7250 277.4019 13.57250232 57266
SHIYAN-27 OBJECT B      
1 63600U 25078B   26166.14498512  .00000020  00000+0  89375-4 0  9999
2 63600  99.6917 173.3782 0000970  79.7911 280.3337 13.57246821 57253
SHIYAN-27 OBJECT C      
1 63601U 25078C   26166.16950678  .00000000  00000+0  61541-4 0  9991
2 63601  99.6911 173.4941 0001177  90.9255 269.2018 13.57246020 57266
SHIYAN-27 OBJECT D      
1 63602U 25078D   26166.15728978  .00000001  00000+0  63430-4 0  9997
2 63602  99.6933 173.4290 0001142  84.6001 275.5267 13.57248992 57254
SHIYAN-27 OBJECT E      
1 63603U 25078E   26166.13259713  .00000013  00000+0  79489-4 0  9996
2 63603  99.6889 173.3142 0001127  83.3951 276.7316 13.57241603 57253
SHIYAN-27 OBJECT F      
1 63604U 25078F   26166.19408747  .00000005  00000+0  68315-4 0  9993
2 63604  99.6907 173.4379 0001223  86.2252 273.9026 13.57241497 57260
KORSAT-3                
1 63630U 25081A   26166.00723205  .00003116  00000+0  27332-3 0  9994
2 63630  45.4123 347.1896 0007497 204.4625 155.5898 14.98788155 62855
TOMORROW-S7             
1 63631U 25081B   26166.18812556  .00001354  00000+0  12677-3 0  9990
2 63631  45.3946 346.2162 0002770 256.3860 103.6710 14.99609955 62870
STARLINK-33879          
1 63634U 25083A   26165.72836371  .00022081  00000+0  80937-3 0  9999
2 63634  42.9928 177.5321 0001671 276.5065  83.5596 15.27585774 64906
STARLINK-33854          
1 63635U 25083B   26165.75134304  .00016228  00000+0  59783-3 0  9991
2 63635  43.0017 176.8538 0002288 276.7626  83.2965 15.27584833 64913
STARLINK-33864          
1 63636U 25083C   26165.33989350  .00011483  00000+0  42585-3 0  9995
2 63636  43.0015 179.7738 0000541 294.7445  65.3350 15.27602353 64877
STARLINK-33832          
1 63637U 25083D   26165.74362430  .00023026  00000+0  84324-3 0  9998
2 63637  43.0054 176.7930 0004127 264.7037  95.3343 15.27590848 64915
STARLINK-33856          
1 63638U 25083E   26165.75390682  .00019648  00000+0  72138-3 0  9995
2 63638  43.0034 176.8641 0003352 265.6860  94.3609 15.27588232 64915
STARLINK-33876          
1 63639U 25083F   26164.33082917  .00014385  00000+0  53092-3 0  9999
2 63639  42.9986 185.0966 0003969 278.8312  81.2090 15.27595016 64696
STARLINK-33859          
1 63640U 25083G   26165.73093073  .00021183  00000+0  77688-3 0  9992
2 63640  42.9926 177.5567 0002183 269.6335  90.4266 15.27587817 64906
STARLINK-33826          
1 63641U 25083H   26165.75648267  .00021980  00000+0  80564-3 0  9998
2 63641  43.0007 176.8897 0002270 268.3033  91.7559 15.27589296 64918
STARLINK-33836          
1 63642U 25083J   26165.72193233  .00019008  00000+0  69798-3 0  9998
2 63642  42.9929 177.4830 0002731 275.6954  84.3586 15.27600862 64909
STARLINK-33558          
1 63643U 25083K   26165.74748399  .00010927  00000+0  40596-3 0  9996
2 63643  43.0089 176.8139 0002607 261.9469  98.1087 15.27585048 64913
